FIREFLY-1               
1 62701U 25009CW  26188.47141162  .00000991  00000+0  10138-3 0  9997
2 62701  97.7064 266.1814 0002222 263.3822  96.7144 14.92728063 80341
FIREFLY-2               
1 62704U 25009CZ  26188.51633219  .00001088  00000+0  11081-3 0  9990
2 62704  97.7020 265.9994 0007098  27.4174 332.7418 14.92724419 80356
FIREFLY-3               
1 62710U 25009DF  26188.49477854  .00001423  00000+0  14302-3 0  9997
2 62710  97.7054 266.2343 0004895  90.8122 269.3658 14.92788223 80366
