{"fetched_at":"2026-07-07T18:29:25.313Z","source":"https://celestrak.org/NORAD/elements/gp.php?NAME=FIREFLY&FORMAT=JSON","constellation":"pixxel","records":[{"OBJECT_NAME":"FIREFLY-1","OBJECT_ID":"2025-009CW","EPOCH":"2026-07-07T11:18:49.963968","CLASSIFICATION_TYPE":"U","MEAN_MOTION":14.92728063,"ECCENTRICITY":0.0002222,"INCLINATION":97.7064,"RA_OF_ASC_NODE":266.1814,"ARG_OF_PERICENTER":263.3822,"MEAN_ANOMALY":96.7144,"EPHEMERIS_TYPE":0,"NORAD_CAT_ID":62701,"ELEMENT_SET_NO":999,"REV_AT_EPOCH":8034,"BSTAR":0.00010138,"MEAN_MOTION_DOT":0.00000991,"MEAN_MOTION_DDOT":0},{"OBJECT_NAME":"FIREFLY-2","OBJECT_ID":"2025-009CZ","EPOCH":"2026-07-07T12:23:31.101216","CLASSIFICATION_TYPE":"U","MEAN_MOTION":14.92724419,"ECCENTRICITY":0.0007098,"INCLINATION":97.702,"RA_OF_ASC_NODE":265.9994,"ARG_OF_PERICENTER":27.4174,"MEAN_ANOMALY":332.7418,"EPHEMERIS_TYPE":0,"NORAD_CAT_ID":62704,"ELEMENT_SET_NO":999,"REV_AT_EPOCH":8035,"BSTAR":0.00011081,"MEAN_MOTION_DOT":0.00001088,"MEAN_MOTION_DDOT":0},{"OBJECT_NAME":"FIREFLY-3","OBJECT_ID":"2025-009DF","EPOCH":"2026-07-07T11:52:28.865856","CLASSIFICATION_TYPE":"U","MEAN_MOTION":14.92788223,"ECCENTRICITY":0.0004895,"INCLINATION":97.7054,"RA_OF_ASC_NODE":266.2343,"ARG_OF_PERICENTER":90.8122,"MEAN_ANOMALY":269.3658,"EPHEMERIS_TYPE":0,"NORAD_CAT_ID":62710,"ELEMENT_SET_NO":999,"REV_AT_EPOCH":8036,"BSTAR":0.00014302,"MEAN_MOTION_DOT":0.00001423,"MEAN_MOTION_DDOT":0}]}
